CCSDS_OMM_VERS = 2.0
CREATION_DATE  = 
ORIGINATOR     = 

OBJECT_NAME    = ALOS (DAICHI)
OBJECT_ID      = 2006-002A
CENTER_NAME    = EARTH
REF_FRAME      = TEME
TIME_SYSTEM    = UTC
MEAN_ELEMENT_THEORY = SGP/SGP4

EPOCH          = 2026-02-28T20:34:11.375040
MEAN_MOTION    = 14.69775150
ECCENTRICITY   = .00012858
INCLINATION    = 98.1203
RA_OF_ASC_NODE = 15.8580
ARG_OF_PERICENTER = 51.6110
MEAN_ANOMALY   = 308.5211

EPHEMERIS_TYPE = 0
CLASSIFICATION_TYPE = U
NORAD_CAT_ID   = 28931
ELEMENT_SET_NO = 999
REV_AT_EPOCH   = 7218
BSTAR          = .26447897E-3
MEAN_MOTION_DOT = .1528E-4
MEAN_MOTION_DDOT = 0

CCSDS_OMM_VERS = 2.0
CREATION_DATE  = 
ORIGINATOR     = 

OBJECT_NAME    = H-2A R/B
OBJECT_ID      = 2006-002B
CENTER_NAME    = EARTH
REF_FRAME      = TEME
TIME_SYSTEM    = UTC
MEAN_ELEMENT_THEORY = SGP/SGP4

EPOCH          = 2026-02-28T23:08:40.318656
MEAN_MOTION    = 15.16195570
ECCENTRICITY   = .0051973
INCLINATION    = 98.2385
RA_OF_ASC_NODE = 206.2404
ARG_OF_PERICENTER = 271.0719
MEAN_ANOMALY   = 88.4557

EPHEMERIS_TYPE = 0
CLASSIFICATION_TYPE = U
NORAD_CAT_ID   = 28932
ELEMENT_SET_NO = 999
REV_AT_EPOCH   = 9311
BSTAR          = .52325257E-3
MEAN_MOTION_DOT = .10384E-3
MEAN_MOTION_DDOT = 0

CCSDS_OMM_VERS = 2.0
CREATION_DATE  = 
ORIGINATOR     = 

OBJECT_NAME    = RESURS-DK 1
OBJECT_ID      = 2006-021A
CENTER_NAME    = EARTH
REF_FRAME      = TEME
TIME_SYSTEM    = UTC
MEAN_ELEMENT_THEORY = SGP/SGP4

EPOCH          = 2026-02-28T22:32:23.032608
MEAN_MOTION    = 15.12677186
ECCENTRICITY   = .00025791
INCLINATION    = 69.9305
RA_OF_ASC_NODE = 259.6600
ARG_OF_PERICENTER = 166.9252
MEAN_ANOMALY   = 193.1981

EPHEMERIS_TYPE = 0
CLASSIFICATION_TYPE = U
NORAD_CAT_ID   = 29228
ELEMENT_SET_NO = 999
REV_AT_EPOCH   = 8620
BSTAR          = .16827262E-3
MEAN_MOTION_DOT = .2844E-4
MEAN_MOTION_DDOT = 0

CCSDS_OMM_VERS = 2.0
CREATION_DATE  = 
ORIGINATOR     = 

OBJECT_NAME    = CZ-4B R/B
OBJECT_ID      = 2006-046C
CENTER_NAME    = EARTH
REF_FRAME      = TEME
TIME_SYSTEM    = UTC
MEAN_ELEMENT_THEORY = SGP/SGP4

EPOCH          = 2026-02-28T16:53:05.581248
MEAN_MOTION    = 15.16793573
ECCENTRICITY   = .00318393
INCLINATION    = 97.5616
RA_OF_ASC_NODE = 104.6366
ARG_OF_PERICENTER = 300.1082
MEAN_ANOMALY   = 59.6996

EPHEMERIS_TYPE = 0
CLASSIFICATION_TYPE = U
NORAD_CAT_ID   = 29507
ELEMENT_SET_NO = 999
REV_AT_EPOCH   = 5868
BSTAR          = .23615471E-3
MEAN_MOTION_DOT = .4628E-4
MEAN_MOTION_DDOT = 0

CCSDS_OMM_VERS = 2.0
CREATION_DATE  = 
ORIGINATOR     = 

OBJECT_NAME    = CZ-2C R/B
OBJECT_ID      = 2007-010B
CENTER_NAME    = EARTH
REF_FRAME      = TEME
TIME_SYSTEM    = UTC
MEAN_ELEMENT_THEORY = SGP/SGP4

EPOCH          = 2026-02-28T22:04:14.853504
MEAN_MOTION    = 14.20242548
ECCENTRICITY   = .0058157
INCLINATION    = 98.3976
RA_OF_ASC_NODE = 173.6384
ARG_OF_PERICENTER = 320.5696
MEAN_ANOMALY   = 39.1256

EPHEMERIS_TYPE = 0
CLASSIFICATION_TYPE = U
NORAD_CAT_ID   = 31114
ELEMENT_SET_NO = 999
REV_AT_EPOCH   = 97847
BSTAR          = .77000129E-4
MEAN_MOTION_DOT = .126E-5
MEAN_MOTION_DDOT = 0

CCSDS_OMM_VERS = 2.0
CREATION_DATE  = 
ORIGINATOR     = 

OBJECT_NAME    = COSMO-SKYMED 1
OBJECT_ID      = 2007-023A
CENTER_NAME    = EARTH
REF_FRAME      = TEME
TIME_SYSTEM    = UTC
MEAN_ELEMENT_THEORY = SGP/SGP4

EPOCH          = 2026-02-28T23:19:51.708864
MEAN_MOTION    = 14.96454979
ECCENTRICITY   = .00009411
INCLINATION    = 97.8868
RA_OF_ASC_NODE = 250.9351
ARG_OF_PERICENTER = 82.7852
MEAN_ANOMALY   = 277.3476

EPHEMERIS_TYPE = 0
CLASSIFICATION_TYPE = U
NORAD_CAT_ID   = 31598
ELEMENT_SET_NO = 999
REV_AT_EPOCH   = 1360
BSTAR          = .28679686E-3
MEAN_MOTION_DOT = .3195E-4
MEAN_MOTION_DDOT = 0

CCSDS_OMM_VERS = 2.0
CREATION_DATE  = 
ORIGINATOR     = 

OBJECT_NAME    = COSMOS 2428
OBJECT_ID      = 2007-029A
CENTER_NAME    = EARTH
REF_FRAME      = TEME
TIME_SYSTEM    = UTC
MEAN_ELEMENT_THEORY = SGP/SGP4

EPOCH          = 2026-02-28T21:32:43.061568
MEAN_MOTION    = 14.12943652
ECCENTRICITY   = .00086119
INCLINATION    = 70.9415
RA_OF_ASC_NODE = 221.7971
ARG_OF_PERICENTER = 286.5734
MEAN_ANOMALY   = 73.4441

EPHEMERIS_TYPE = 0
CLASSIFICATION_TYPE = U
NORAD_CAT_ID   = 31792
ELEMENT_SET_NO = 999
REV_AT_EPOCH   = 96285
BSTAR          = .85409314E-4
MEAN_MOTION_DOT = .111E-5
MEAN_MOTION_DDOT = 0

CCSDS_OMM_VERS = 2.0
CREATION_DATE  = 
ORIGINATOR     = 

OBJECT_NAME    = SL-16 R/B
OBJECT_ID      = 2007-029B
CENTER_NAME    = EARTH
REF_FRAME      = TEME
TIME_SYSTEM    = UTC
MEAN_ELEMENT_THEORY = SGP/SGP4

EPOCH          = 2026-02-28T19:20:44.993184
MEAN_MOTION    = 14.14834537
ECCENTRICITY   = .0002449
INCLINATION    = 70.9755
RA_OF_ASC_NODE = 191.0569
ARG_OF_PERICENTER = 279.3263
MEAN_ANOMALY   = 189.0790

EPHEMERIS_TYPE = 0
CLASSIFICATION_TYPE = U
NORAD_CAT_ID   = 31793
ELEMENT_SET_NO = 999
REV_AT_EPOCH   = 96411
BSTAR          = -.96075479E-4
MEAN_MOTION_DOT = -.233E-5
MEAN_MOTION_DDOT = 0

CCSDS_OMM_VERS = 2.0
CREATION_DATE  = 
ORIGINATOR     = 

OBJECT_NAME    = KORONAS-FOTON
OBJECT_ID      = 2009-003A
CENTER_NAME    = EARTH
REF_FRAME      = TEME
TIME_SYSTEM    = UTC
MEAN_ELEMENT_THEORY = SGP/SGP4

EPOCH          = 2026-02-28T16:28:17.849280
MEAN_MOTION    = 15.43067289
ECCENTRICITY   = .00104751
INCLINATION    = 82.4295
RA_OF_ASC_NODE = 285.2380
ARG_OF_PERICENTER = 180.5553
MEAN_ANOMALY   = 179.5685

EPHEMERIS_TYPE = 0
CLASSIFICATION_TYPE = U
NORAD_CAT_ID   = 33504
ELEMENT_SET_NO = 999
REV_AT_EPOCH   = 94435
BSTAR          = .27915517E-3
MEAN_MOTION_DOT = .12391E-3
MEAN_MOTION_DDOT = 0

CCSDS_OMM_VERS = 2.0
CREATION_DATE  = 
ORIGINATOR     = 

OBJECT_NAME    = CZ-2C R/B
OBJECT_ID      = 2011-030B
CENTER_NAME    = EARTH
REF_FRAME      = TEME
TIME_SYSTEM    = UTC
MEAN_ELEMENT_THEORY = SGP/SGP4

EPOCH          = 2026-02-28T21:33:02.784960
MEAN_MOTION    = 14.81180047
ECCENTRICITY   = .00532571
INCLINATION    = 97.8527
RA_OF_ASC_NODE = 17.3383
ARG_OF_PERICENTER = 20.5653
MEAN_ANOMALY   = 43.2004

EPHEMERIS_TYPE = 0
CLASSIFICATION_TYPE = U
NORAD_CAT_ID   = 37731
ELEMENT_SET_NO = 999
REV_AT_EPOCH   = 78879
BSTAR          = .24646426E-3
MEAN_MOTION_DOT = .191E-4
MEAN_MOTION_DDOT = 0

CCSDS_OMM_VERS = 2.0
CREATION_DATE  = 
ORIGINATOR     = 

OBJECT_NAME    = H-2A R/B
OBJECT_ID      = 2012-025E
CENTER_NAME    = EARTH
REF_FRAME      = TEME
TIME_SYSTEM    = UTC
MEAN_ELEMENT_THEORY = SGP/SGP4

EPOCH          = 2026-02-28T21:28:08.808960
MEAN_MOTION    = 14.95073204
ECCENTRICITY   = .00442687
INCLINATION    = 98.4703
RA_OF_ASC_NODE = 26.2382
ARG_OF_PERICENTER = 343.2437
MEAN_ANOMALY   = 16.7316

EPHEMERIS_TYPE = 0
CLASSIFICATION_TYPE = U
NORAD_CAT_ID   = 38341
ELEMENT_SET_NO = 999
REV_AT_EPOCH   = 74690
BSTAR          = .39202826E-3
MEAN_MOTION_DOT = .4309E-4
MEAN_MOTION_DDOT = 0

CCSDS_OMM_VERS = 2.0
CREATION_DATE  = 
ORIGINATOR     = 

OBJECT_NAME    = SHIJIAN-16 (SJ-16)
OBJECT_ID      = 2013-057A
CENTER_NAME    = EARTH
REF_FRAME      = TEME
TIME_SYSTEM    = UTC
MEAN_ELEMENT_THEORY = SGP/SGP4

EPOCH          = 2026-02-28T23:32:26.568384
MEAN_MOTION    = 14.92292684
ECCENTRICITY   = .00159085
INCLINATION    = 74.9714
RA_OF_ASC_NODE = 201.5729
ARG_OF_PERICENTER = 135.1304
MEAN_ANOMALY   = 225.1174

EPHEMERIS_TYPE = 0
CLASSIFICATION_TYPE = U
NORAD_CAT_ID   = 39358
ELEMENT_SET_NO = 999
REV_AT_EPOCH   = 67020
BSTAR          = .11302526E-3
MEAN_MOTION_DOT = .1128E-4
MEAN_MOTION_DDOT = 0

