ALOS (DAICHI)           
1 28931U 06002A   26059.85707610  .00001528  00000+0  26448-3 0  9999
2 28931  98.1203  15.8580 0001285  51.6110 308.5211 14.69775150 72188
H-2A R/B                
1 28932U 06002B   26059.96435554  .00010384  00000+0  52325-3 0  9990
2 28932  98.2385 206.2404 0051973 271.0719  88.4557 15.16195570 93112
RESURS-DK 1             
1 29228U 06021A   26059.93915547  .00002844  00000+0  16827-3 0  9991
2 29228  69.9305 259.6600 0002579 166.9252 193.1981 15.12677186 86201
CZ-4B R/B               
1 29507U 06046C   26059.70353682  .00004628  00000+0  23615-3 0  9994
2 29507  97.5616 104.6366 0031839 300.1082  59.6996 15.16793573 58681
CZ-2C R/B               
1 31114U 07010B   26059.91961636  .00000126  00000+0  77000-4 0  9997
2 31114  98.3976 173.6384 0058157 320.5696  39.1256 14.20242548978476
COSMO-SKYMED 1          
1 31598U 07023A   26059.97212626  .00003195  00000+0  28680-3 0  9999
2 31598  97.8868 250.9351 0000941  82.7852 277.3476 14.96454979 13609
COSMOS 2428             
1 31792U 07029A   26059.89772062  .00000111  00000+0  85409-4 0  9995
2 31792  70.9415 221.7971 0008611 286.5734  73.4441 14.12943652962850
SL-16 R/B               
1 31793U 07029B   26059.80607631 -.00000233  00000+0 -96075-4 0  9994
2 31793  70.9755 191.0569 0002449 279.3263 189.0790 14.14834537964115
KORONAS-FOTON           
1 33504U 09003A   26059.68631770  .00012391  00000+0  27916-3 0  9990
2 33504  82.4295 285.2380 0010475 180.5553 179.5685 15.43067289944350
CZ-2C R/B               
1 37731U 11030B   26059.89794890  .00001910  00000+0  24646-3 0  9997
2 37731  97.8527  17.3383 0053257  20.5653  43.2004 14.81180047788795
H-2A R/B                
1 38341U 12025E   26059.89454640  .00004309  00000+0  39203-3 0  9996
2 38341  98.4703  26.2382 0044268 343.2437  16.7316 14.95073204746900
SHIJIAN-16 (SJ-16)      
1 39358U 13057A   26059.98086306  .00001128  00000+0  11303-3 0  9998
2 39358  74.9714 201.5729 0015908 135.1304 225.1174 14.92292684670202
